{
  "type": "FeatureCollection",
  "features": [
    {
      "type": "Feature",
      "properties": {
        "norad_id": 34833,
        "name": "IRIDIUM 33 DEB",
        "group": "iridium-33-debris",
        "lat": -84.39627298984233,
        "lon": -95.03317606821571,
        "alt_km": 738.0493796923474,
        "timestamp": "2025-12-26T18:39:32.665733+00:00",
        "meta_object_name": "IRIDIUM 33 DEB",
        "meta_object_id": "1997-051MH",
        "meta_epoch": "2025-12-26T02:41:22.045344",
        "meta_mean_motion": 14.52451151,
        "meta_eccentricity": 0.00211523,
        "meta_inclination": 86.3918,
        "meta_ra_of_asc_node": 45.2295,
        "meta_arg_of_pericenter": 57.6143,
        "meta_mean_anomaly": 331.1785,
        "meta_ephemeris_type": 0,
        "meta_classification_type": "U",
        "meta_norad_cat_id": 34833,
        "meta_element_set_no": 999,
        "meta_rev_at_epoch": 87909,
        "meta_bstar": 0.00066936049,
        "meta_mean_motion_dot": 2.757e-05,
        "meta_mean_motion_ddot": 0,
        "tle_line1": "1 34833U 97051MH  25360.11206071  .00002757  00000+0  66936-3 0  9990",
        "tle_line2": "2 34833  86.3918  45.2295 0021152  57.6143 331.1785 14.52451151879092"
      },
      "geometry": {
        "type": "Point",
        "coordinates": [
          -95.03317606821571,
          -84.39627298984233
        ]
      }
    },
    {
      "type": "Feature",
      "properties": {
        "norad_id": 34870,
        "name": "IRIDIUM 33 DEB",
        "group": "iridium-33-debris",
        "lat": 15.956102264610712,
        "lon": -51.288980622620215,
        "alt_km": 646.5204908577853,
        "timestamp": "2025-12-26T18:39:32.665743+00:00",
        "meta_object_name": "IRIDIUM 33 DEB",
        "meta_object_id": "1997-051MQ",
        "meta_epoch": "2025-12-26T04:14:20.156352",
        "meta_mean_motion": 14.7668735,
        "meta_eccentricity": 0.00182715,
        "meta_inclination": 86.3108,
        "meta_ra_of_asc_node": 307.9292,
        "meta_arg_of_pericenter": 135.8969,
        "meta_mean_anomaly": 288.3699,
        "meta_ephemeris_type": 0,
        "meta_classification_type": "U",
        "meta_norad_cat_id": 34870,
        "meta_element_set_no": 999,
        "meta_rev_at_epoch": 89109,
        "meta_bstar": 0.001456659,
        "meta_mean_motion_dot": 0.00010246,
        "meta_mean_motion_ddot": 0,
        "tle_line1": "1 34870U 97051MQ  25360.17662218  .00010246  00000+0  14567-2 0  9990",
        "tle_line2": "2 34870  86.3108 307.9292 0018271 135.8969 288.3699 14.76687350891091"
      },
      "geometry": {
        "type": "Point",
        "coordinates": [
          -51.288980622620215,
          15.956102264610712
        ]
      }
    },
    {
      "type": "Feature",
      "properties": {
        "norad_id": 34896,
        "name": "IRIDIUM 33 DEB",
        "group": "iridium-33-debris",
        "lat": 61.17322359949285,
        "lon": -32.91365352940069,
        "alt_km": 670.8174758925416,
        "timestamp": "2025-12-26T18:39:32.665754+00:00",
        "meta_object_name": "IRIDIUM 33 DEB",
        "meta_object_id": "1997-051MY",
        "meta_epoch": "2025-12-24T04:12:44.288640",
        "meta_mean_motion": 14.66381715,
        "meta_eccentricity": 0.00257287,
        "meta_inclination": 86.3299,
        "meta_ra_of_asc_node": 321.5555,
        "meta_arg_of_pericenter": 173.6101,
        "meta_mean_anomaly": 201.3064,
        "meta_ephemeris_type": 0,
        "meta_classification_type": "U",
        "meta_norad_cat_id": 34896,
        "meta_element_set_no": 999,
        "meta_rev_at_epoch": 87787,
        "meta_bstar": 0.00093038371,
        "meta_mean_motion_dot": 5.188e-05,
        "meta_mean_motion_ddot": 0,
        "tle_line1": "1 34896U 97051MY  25358.17551260  .00005188  00000+0  93038-3 0  9999",
        "tle_line2": "2 34896  86.3299 321.5555 0025728 173.6101 201.3064 14.66381715877873"
      },
      "geometry": {
        "type": "Point",
        "coordinates": [
          -32.91365352940069,
          61.17322359949285
        ]
      }
    },
    {
      "type": "Feature",
      "properties": {
        "norad_id": 34926,
        "name": "IRIDIUM 33 DEB",
        "group": "iridium-33-debris",
        "lat": -76.64974080629874,
        "lon": -14.805755595279102,
        "alt_km": 675.419278065242,
        "timestamp": "2025-12-26T18:39:32.665764+00:00",
        "meta_object_name": "IRIDIUM 33 DEB",
        "meta_object_id": "1997-051NF",
        "meta_epoch": "2025-12-25T18:30:14.349024",
        "meta_mean_motion": 14.55003847,
        "meta_eccentricity": 0.00742448,
        "meta_inclination": 86.1316,
        "meta_ra_of_asc_node": 2.2273,
        "meta_arg_of_pericenter": 247.4767,
        "meta_mean_anomaly": 166.2453,
        "meta_ephemeris_type": 0,
        "meta_classification_type": "U",
        "meta_norad_cat_id": 34926,
        "meta_element_set_no": 999,
        "meta_rev_at_epoch": 86646,
        "meta_bstar": 0.0054586547,
        "meta_mean_motion_dot": 0.0002447,
        "meta_mean_motion_ddot": 0,
        "tle_line1": "1 34926U 97051NF  25359.77099941  .00024470  00000+0  54587-2 0  9993",
        "tle_line2": "2 34926  86.1316   2.2273 0074244 247.4767 166.2453 14.55003847866469"
      },
      "geometry": {
        "type": "Point",
        "coordinates": [
          -14.805755595279102,
          -76.64974080629874
        ]
      }
    },
    {
      "type": "Feature",
      "properties": {
        "norad_id": 34985,
        "name": "IRIDIUM 33 DEB",
        "group": "iridium-33-debris",
        "lat": 53.10641332361196,
        "lon": -133.9633372193036,
        "alt_km": 735.8876380151287,
        "timestamp": "2025-12-26T18:39:32.665775+00:00",
        "meta_object_name": "IRIDIUM 33 DEB",
        "meta_object_id": "1997-051NR",
        "meta_epoch": "2025-12-26T09:50:20.314176",
        "meta_mean_motion": 14.4206468,
        "meta_eccentricity": 0.00221767,
        "meta_inclination": 86.3683,
        "meta_ra_of_asc_node": 51.047,
        "meta_arg_of_pericenter": 174.4145,
        "meta_mean_anomaly": 205.7839,
        "meta_ephemeris_type": 0,
        "meta_classification_type": "U",
        "meta_norad_cat_id": 34985,
        "meta_element_set_no": 999,
        "meta_rev_at_epoch": 87372,
        "meta_bstar": 0.00061510564,
        "meta_mean_motion_dot": 2.045e-05,
        "meta_mean_motion_ddot": 0,
        "tle_line1": "1 34985U 97051NR  25360.40995734  .00002045  00000+0  61511-3 0  9995",
        "tle_line2": "2 34985  86.3683  51.0470 0022176 174.4145 205.7839 14.42064680873722"
      },
      "geometry": {
        "type": "Point",
        "coordinates": [
          -133.9633372193036,
          53.10641332361196
        ]
      }
    },
    {
      "type": "Feature",
      "properties": {
        "norad_id": 35051,
        "name": "IRIDIUM 33 DEB",
        "group": "iridium-33-debris",
        "lat": -18.518796415424536,
        "lon": 1.5099784946632182,
        "alt_km": 735.7330948933031,
        "timestamp": "2025-12-26T18:39:32.665786+00:00",
        "meta_object_name": "IRIDIUM 33 DEB",
        "meta_object_id": "1997-051NX",
        "meta_epoch": "2025-12-22T18:31:37.744896",
        "meta_mean_motion": 14.47639956,
        "meta_eccentricity": 0.0010302,
        "meta_inclination": 86.324,
        "meta_ra_of_asc_node": 4.4893,
        "meta_arg_of_pericenter": 63.2582,
        "meta_mean_anomaly": 296.9674,
        "meta_ephemeris_type": 0,
        "meta_classification_type": "U",
        "meta_norad_cat_id": 35051,
        "meta_element_set_no": 999,
        "meta_rev_at_epoch": 87141,
        "meta_bstar": 0.00060447572,
        "meta_mean_motion_dot": 2.248e-05,
        "meta_mean_motion_ddot": 0,
        "tle_line1": "1 35051U 97051NX  25356.77196464  .00002248  00000+0  60448-3 0  9991",
        "tle_line2": "2 35051  86.3240   4.4893 0010302  63.2582 296.9674 14.47639956871417"
      },
      "geometry": {
        "type": "Point",
        "coordinates": [
          1.5099784946632182,
          -18.518796415424536
        ]
      }
    },
    {
      "type": "Feature",
      "properties": {
        "norad_id": 35052,
        "name": "IRIDIUM 33 DEB",
        "group": "iridium-33-debris",
        "lat": 30.02196947223206,
        "lon": 16.582384762218265,
        "alt_km": 753.0001796972101,
        "timestamp": "2025-12-26T18:39:32.665796+00:00",
        "meta_object_name": "IRIDIUM 33 DEB",
        "meta_object_id": "1997-051NY",
        "meta_epoch": "2025-12-26T00:09:21.492000",
        "meta_mean_motion": 14.38507246,
        "meta_eccentricity": 0.00130035,
        "meta_inclination": 86.3301,
        "meta_ra_of_asc_node": 14.7874,
        "meta_arg_of_pericenter": 47.6773,
        "meta_mean_anomaly": 312.5525,
        "meta_ephemeris_type": 0,
        "meta_classification_type": "U",
        "meta_norad_cat_id": 35052,
        "meta_element_set_no": 999,
        "meta_rev_at_epoch": 87466,
        "meta_bstar": 0.00018800221,
        "meta_mean_motion_dot": 5.94e-06,
        "meta_mean_motion_ddot": 0,
        "tle_line1": "1 35052U 97051NY  25360.00649875  .00000594  00000+0  18800-3 0  9999",
        "tle_line2": "2 35052  86.3301  14.7874 0013003  47.6773 312.5525 14.38507246874664"
      },
      "geometry": {
        "type": "Point",
        "coordinates": [
          16.582384762218265,
          30.02196947223206
        ]
      }
    }
  ]
}